#aV2012 12 19  0  0  0.00000000     288 DD+AD WGS84 FIT  NGA
## 1719 259200.00000000   300.00000000 56280 0.0000000000000
+   31     1  2  3  4  5  6  7  8  9 10 11 12 13 14 15 16 17
+         18 19 20 21 22 23 24 25 26 28 29 30 31 32  0  0  0
+          0  0  0  0  0  0  0  0  0  0  0  0  0  0  0  0  0
+          0  0  0  0  0  0  0  0  0  0  0  0  0  0  0  0  0
+          0  0  0  0  0  0  0  0  0  0  0  0  0  0  0  0  0
++         2  2  2  2  2  2  2  2  2  2  2  2  2  2  2  2  2
++         2  2  2  2  2  2  2  2  2  2  2  2  2  2  2  0  0
++         0  0  0  0  0  0  0  0  0  0  0  0  0  0  0  0  0
++         0  0  0  0  0  0  0  0  0  0  0  0  0  0  0  0  0
++         0  0  0  0  0  0  0  0  0  0  0  0  0  0  0  0  0
%c cc cc ccc ccc cccc cccc cccc cccc ccccc ccccc ccccc ccccc
%c cc cc ccc ccc cccc cccc cccc cccc ccccc ccccc ccccc ccccc
%f  0.0000000  0.000000000  0.00000000000  0.000000000000000
%f  0.0000000  0.000000000  0.00000000000  0.000000000000000
%i    0    0    0    0      0      0      0      0         0
%i    0    0    0    0      0      0      0      0         0
/*      NGA, ST. LOUIS,MO.                                  
/*   EPHEMERIS COMPUTED FROM  1 DAYS OF DATA
/*   EPOCHA SMOOTHER  
/* CCCCCCCCCCCCCCCCCCCCCCCCCCCCCCCCCCCCCCCCCCCCCCCCCCCCCCCCC
*  2012 12 19  1 10  0.00000000                                                 
P  1 -18241.544830  -6407.677857  18214.954477    288.279177                    
V  1 -10015.922602 -20935.414055 -17310.631212      0.020886                    
P  2  14414.646049  22591.402176  -1369.825477    411.996403                    
V  2  -1692.809320   3210.515821  30853.200944      0.009961                    
P  3 -17665.387913 -10690.476476 -17333.138266    143.457672                    
V  3  20638.882629  -4573.320241 -18525.136769      0.050185                    
P  4   3570.622013  23416.088262  11436.829626     79.254536                    
V  4 -10295.040474 -11531.504289  26481.965964      0.111206                    
P  5   9096.271812  13829.893645 -20774.989537   -373.607061                    
V  5 -14236.078710  22226.623676   8718.360506     -0.022488                    
P  6 -11750.805086 -13686.821914 -19499.349913    419.542122                    
V  6  24851.511814  -2501.000832 -12824.998734     -0.131593                    
P  7 -11875.613388   9165.009635 -21858.350473    158.690996                    
V  7 -13485.382707 -24348.704059  -3153.174153      0.044171                    
P  8  -4080.970048  19159.950028 -17536.489327      3.559527                    
V  8 -10179.144791 -20250.882118 -20211.824407      0.002050                    
P  9  17692.473863  15727.290733  11428.374524    207.605826                    
V  9   5887.019376  14311.974895 -27565.134601      0.027669                    
P 10  -6181.746428  23710.324343  -9990.909882    -62.746331                    
V 10  -9290.136107   8893.068010  28041.430035     -0.014406                    
P 11 -22283.601081  -9794.454905  10525.561857   -334.647883                    
V 11  -7102.940674 -12854.830595 -25658.743936     -0.038639                    
P 12  17422.965266  -2866.382663  19758.355334    107.617957                    
V 12 -12562.889691  21794.502988  14414.475728      0.020314                    
P 13 -23348.338344   5308.437014 -11747.886330    159.131119                    
V 13 -14366.030325  -3237.895283  27295.952714     -0.028711                    
P 14   7426.478864 -13978.088217  21501.524123    218.454172                    
V 14  26686.115124   2749.712398  -7634.574287      0.005205                    
P 15  25188.144300   4958.664090  -7309.403344   -102.602622                    
V 15  -9182.232381   3100.182892 -29349.132174     -0.010746                    
P 16  -7639.597410 -14022.867007 -21163.236827   -250.960688                    
V 16  15419.977593 -22018.003472   9338.141367     -0.004198                    
P 17  -5723.990424  14673.167667  21549.531458     68.086102                    
V 17 -26865.529346  -1954.073695  -6100.253412     -0.036532                    
P 18  16275.318149 -20082.536019  -4849.546252    230.076565                    
V 18     57.225546   7873.243027 -30408.432893      0.018447                    
P 19 -23543.376201  -8876.042466  -9196.638475   -332.152810                    
V 19  11611.874654  -1013.616783 -28592.692167     -0.033611                    
P 20 -18202.751615   4753.058163  18548.042091     76.927370                    
V 20   9541.524700 -22158.318050  14978.527338      0.012830                    
P 21   9885.410391 -13162.517283 -20221.875438   -269.195368                    
V 21  14358.335655  23016.785120  -8312.336576     -0.023672                    
P 22   8440.672689 -24169.437317   6999.578137    153.672683                    
V 22   7743.109670  -5525.122025 -29310.946004      0.006272                    
P 23 -26765.545748   -459.112536   -301.556647    132.680069                    
V 23   -384.458187  -2592.000515  31438.989735     -0.038196                    
P 24  18670.319986  10012.223986  16033.150450      2.126646                    
V 24   8421.919717  18627.071899 -21425.361305     -0.006972                    
P 25  18281.785556 -14883.156447  12124.661493     57.290210                    
V 25  -5947.259602  14432.929058  26675.930546      0.022573                    
P 26  16552.825730  13102.658303 -16959.265583   -169.984607                    
V 26 -20163.235175  -1039.719457 -20936.864288      0.135608                    
P 28 -11866.964019  23287.239773   4610.443820    215.268625                    
V 28  -4710.158740   3046.413161 -31640.557757      0.035001                    
P 29  23878.198629  -5595.175767 -10099.476833    388.892355                    
V 29  12739.925923   3179.080921  28251.035416      0.039281                    
P 30  -1023.565357 -22264.077862 -14813.736283   -280.037011                    
V 30   9425.485748 -15677.585839  23450.090788      0.121627                    
P 31  -6398.972664 -24231.255788   8576.147494    293.015395                    
V 31   6944.311499   8397.126544  29819.747525      0.020052                    
P 32 -14593.778075  -5996.090261  21475.349241   -518.167468                    
V 32  15212.772086 -22307.258946   4647.291737     -0.034607                    
EOF
